{
    "links": {
        "self": "http://www.neowsapp.com/rest/v1/neo/54054544?api_key=iIulBulltgU6a56xZRHN4H3l9WmuAYTsLGpBGhQ2"
    },
    "id": "54054544",
    "neo_reference_id": "54054544",
    "name": "(2020 SY2)",
    "designation": "2020 SY2",
    "nasa_jpl_url": "http://ssd.jpl.nasa.gov/sbdb.cgi?sstr=54054544",
    "absolute_magnitude_h": 23.39,
    "estimated_diameter": {
        "kilometers": {
            "estimated_diameter_min": 0.0557898221,
            "estimated_diameter_max": 0.1247498347
        },
        "meters": {
            "estimated_diameter_min": 55.7898221067,
            "estimated_diameter_max": 124.7498346832
        },
        "miles": {
            "estimated_diameter_min": 0.0346661776,
            "estimated_diameter_max": 0.0775159295
        },
        "feet": {
            "estimated_diameter_min": 183.0374799606,
            "estimated_diameter_max": 409.2842476221
        }
    },
    "is_potentially_hazardous_asteroid": false,
    "close_approach_data": [
        {
            "close_approach_date": "2020-10-06",
            "close_approach_date_full": "2020-Oct-06 18:45",
            "epoch_date_close_approach": 1602009900000,
            "relative_velocity": {
                "kilometers_per_second": "12.4158059467",
                "kilometers_per_hour": "44696.9014080631",
                "miles_per_hour": "27772.9163221379"
            },
            "miss_distance": {
                "astronomical": "0.129752238",
                "lunar": "50.473620582",
                "kilometers": "19410658.43253306",
                "miles": "12061223.863593828"
            },
            "orbiting_body": "Earth"
        },
        {
            "close_approach_date": "2092-01-14",
            "close_approach_date_full": "2092-Jan-14 19:34",
            "epoch_date_close_approach": 3851177640000,
            "relative_velocity": {
                "kilometers_per_second": "19.8026132515",
                "kilometers_per_hour": "71289.4077054806",
                "miles_per_hour": "44296.4655823305"
            },
            "miss_distance": {
                "astronomical": "0.3872220519",
                "lunar": "150.6293781891",
                "kilometers": "57927594.181269453",
                "miles": "35994537.9353383314"
            },
            "orbiting_body": "Earth"
        }
    ],
    "orbital_data": {
        "orbit_id": "4",
        "orbit_determination_date": "2020-09-30 05:58:53",
        "first_observation_date": "2020-09-19",
        "last_observation_date": "2020-09-30",
        "data_arc_in_days": 11,
        "observations_used": 32,
        "orbit_uncertainty": "8",
        "minimum_orbit_intersection": ".0511311",
        "jupiter_tisserand_invariant": "3.388",
        "epoch_osculation": "2459113.5",
        "eccentricity": ".5668955312185008",
        "semi_major_axis": "2.255531527482282",
        "inclination": "4.423251994254539",
        "ascending_node_longitude": "173.2783706531387",
        "orbital_period": "1237.290789006793",
        "perihelion_distance": ".9768807840301373",
        "perihelion_argument": "243.6572484398462",
        "aphelion_distance": "3.534182270934427",
        "perihelion_time": "2459159.660834605753",
        "mean_anomaly": "346.5691229533757",
        "mean_motion": ".2909582801379955",
        "equinox": "J2000",
        "orbit_class": {
            "orbit_class_type": "APO",
            "orbit_class_description": "Near-Earth asteroid orbits which cross the Earth’s orbit similar to that of 1862 Apollo",
            "orbit_class_range": "a (semi-major axis) > 1.0 AU; q (perihelion) < 1.017 AU"
        }
    },
    "is_sentry_object": false
}